[{"OBJECT_NAME":"SNAP-3 ALICE","OBJECT_ID":"2015-058G","EPOCH":"2026-03-09T23:07:48.978048","MEAN_MOTION":15.43691989,"ECCENTRICITY":0.00373618,"INCLINATION":64.7559,"RA_OF_ASC_NODE":82.4068,"ARG_OF_PERICENTER":68.3259,"MEAN_ANOMALY":292.185,"EPHEMERIS_TYPE":0,"CLASSIFICATION_TYPE":"U","NORAD_CAT_ID":40970,"ELEMENT_SET_NO":999,"REV_AT_EPOCH":10149,"BSTAR":0.0014230807,"MEAN_MOTION_DOT":0.0006659,"MEAN_MOTION_DDOT":0},{"OBJECT_NAME":"TIANMU-1 05","OBJECT_ID":"2023-039C","EPOCH":"2026-03-09T23:39:15.181632","MEAN_MOTION":15.44151126,"ECCENTRICITY":0.00038488,"INCLINATION":97.5163,"RA_OF_ASC_NODE":238.9649,"ARG_OF_PERICENTER":117.8981,"MEAN_ANOMALY":242.2657,"EPHEMERIS_TYPE":0,"CLASSIFICATION_TYPE":"U","NORAD_CAT_ID":55975,"ELEMENT_SET_NO":999,"REV_AT_EPOCH":16549,"BSTAR":0.00042337949,"MEAN_MOTION_DOT":0.00019332,"MEAN_MOTION_DDOT":0}]
